start=new Date('2022-05-25T00:00:00.000Z').valueOf();
sats=[{"SITE":"AFETR","COUNTRY_CODE":"US","BSTAR":"-0.00393750000000","TIME_SYSTEM":"UTC","CENTER_NAME":"EARTH","MEAN_ANOMALY":"288.9411","SEMIMAJOR_AXIS":"6924.769","EPHEMERIS_TYPE":"0","OBJECT_ID":"2020-019AH","EPOCH":"2022-05-24T21:47:03.790464","PERIAPSIS":"545.422","ECCENTRICITY":"0.00017500","MEAN_MOTION_DDOT":"0.0000000000000","REV_AT_EPOCH":"12101","REF_FRAME":"TEME","FILE":"3462783","ARG_OF_PERICENTER":"71.1768","MEAN_MOTION_DOT":"-0.00058749","TLE_LINE2":"2 45391  53.0538 243.1342 0001750  71.1768 288.9411 15.06589279121010","LAUNCH_DATE":"2020-03-18","OBJECT_TYPE":"PAYLOAD","TLE_LINE1":"1 45391U 20019AH  22144.90768276 -.00058749  00000-0 -39375-2 0  9996","MEAN_MOTION":"15.06589279","RA_OF_ASC_NODE":"243.1342","GP_ID":"204452486","NORAD_CAT_ID":"45391","APOAPSIS":"547.845","CLASSIFICATION_TYPE":"U","RCS_SIZE":"LARGE","MEAN_ELEMENT_THEORY":"SGP4","PERIOD":"95.580","DECAY_DATE":null,"INCLINATION":"53.0538","OBJECT_NAME":"STARLINK-1289","ELEMENT_SET_NO":"999"},{"REF_FRAME":"TEME","FILE":"3462783","MEAN_MOTION_DOT":"0.00029619","ARG_OF_PERICENTER":"10.7734","EPHEMERIS_TYPE":"0","OBJECT_ID":"2020-019AJ","EPOCH":"2022-05-24T17:31:29.162496","PERIAPSIS":"525.129","ECCENTRICITY":"0.00013210","MEAN_MOTION_DDOT":"0.0000000000000","REV_AT_EPOCH":"12107","BSTAR":"0.00165280000000","TIME_SYSTEM":"UTC","CENTER_NAME":"EARTH","MEAN_ANOMALY":"349.3286","SEMIMAJOR_AXIS":"6904.176","SITE":"AFETR","COUNTRY_CODE":"US","RCS_SIZE":"LARGE","PERIOD":"95.154","MEAN_ELEMENT_THEORY":"SGP4","INCLINATION":"52.9944","DECAY_DATE":null,"OBJECT_NAME":"STARLINK-1290","ELEMENT_SET_NO":"999","NORAD_CAT_ID":"45392","APOAPSIS":"526.953","CLASSIFICATION_TYPE":"U","MEAN_MOTION":"15.13334766","TLE_LINE1":"1 45392U 20019AJ  22144.73019864  .00029619  00000-0  16528-2 0  9997","RA_OF_ASC_NODE":"234.3930","GP_ID":"204453238","TLE_LINE2":"2 45392  52.9944 234.3930 0001321  10.7734 349.3286 15.13334766121076","LAUNCH_DATE":"2020-03-18","OBJECT_TYPE":"PAYLOAD"},{"TIME_SYSTEM":"UTC","BSTAR":"0.00022550000000","SEMIMAJOR_AXIS":"6925.329","CENTER_NAME":"EARTH","MEAN_ANOMALY":"277.1883","COUNTRY_CODE":"US","SITE":"AFETR","REF_FRAME":"TEME","MEAN_MOTION_DOT":"0.00003079","ARG_OF_PERICENTER":"82.9263","FILE":"3461882","PERIAPSIS":"546.237","EPHEMERIS_TYPE":"0","OBJECT_ID":"2020-019AK","EPOCH":"2022-05-24T12:57:37.256256","REV_AT_EPOCH":"12099","ECCENTRICITY":"0.00013830","MEAN_MOTION_DDOT":"0.0000000000000","RA_OF_ASC_NODE":"244.7954","GP_ID":"204391303","TLE_LINE1":"1 45393U 20019AK  22144.54001454  .00003079  00000-0  22550-3 0  9998","MEAN_MOTION":"15.06406272","LAUNCH_DATE":"2020-03-18","OBJECT_TYPE":"PAYLOAD","TLE_LINE2":"2 45393  53.0541 244.7954 0001383  82.9263 277.1883 15.06406272120994","DECAY_DATE":null,"INCLINATION":"53.0541","RCS_SIZE":"LARGE","MEAN_ELEMENT_THEORY":"SGP4","PERIOD":"95.592","ELEMENT_SET_NO":"999","OBJECT_NAME":"STARLINK-1291","APOAPSIS":"548.152","NORAD_CAT_ID":"45393","CLASSIFICATION_TYPE":"U"},{"SITE":"AFETR","COUNTRY_CODE":"US","BSTAR":"-0.00006978000000","TIME_SYSTEM":"UTC","MEAN_ANOMALY":"284.2724","CENTER_NAME":"EARTH","SEMIMAJOR_AXIS":"6925.383","OBJECT_ID":"2020-019AL","EPOCH":"2022-05-24T18:26:43.263456","EPHEMERIS_TYPE":"0","PERIAPSIS":"546.245","MEAN_MOTION_DDOT":"0.0000000000000","ECCENTRICITY":"0.00014480","REV_AT_EPOCH":"12100","REF_FRAME":"TEME","FILE":"3462783","MEAN_MOTION_DOT":"-0.00001320","ARG_OF_PERICENTER":"75.8426","TLE_LINE2":"2 45394  53.0541 243.7778 0001448  75.8426 284.2724 15.06388745121002","LAUNCH_DATE":"2020-03-18","OBJECT_TYPE":"PAYLOAD","MEAN_MOTION":"15.06388745","TLE_LINE1":"1 45394U 20019AL  22144.76855629 -.00001320  00000-0 -69780-4 0  9990","GP_ID":"204451737","RA_OF_ASC_NODE":"243.7778","NORAD_CAT_ID":"45394","APOAPSIS":"548.251","CLASSIFICATION_TYPE":"U","PERIOD":"95.593","MEAN_ELEMENT_THEORY":"SGP4","RCS_SIZE":"LARGE","INCLINATION":"53.0541","DECAY_DATE":null,"OBJECT_NAME":"STARLINK-1292","ELEMENT_SET_NO":"999"},{"TLE_LINE1":"1 45395U 20019AM  22144.59899720 -.00000665  00000-0 -25735-4 0  9995","MEAN_MOTION":"15.06388472","GP_ID":"204451987","RA_OF_ASC_NODE":"244.5394","TLE_LINE2":"2 45395  53.0536 244.5394 0001397  87.8303 272.2846 15.06388472120424","LAUNCH_DATE":"2020-03-18","OBJECT_TYPE":"PAYLOAD","PERIOD":"95.593","MEAN_ELEMENT_THEORY":"SGP4","RCS_SIZE":"LARGE","INCLINATION":"53.0536","DECAY_DATE":null,"OBJECT_NAME":"STARLINK-1297","ELEMENT_SET_NO":"999","NORAD_CAT_ID":"45395","APOAPSIS":"548.216","CLASSIFICATION_TYPE":"U","BSTAR":"-0.00002573500000","TIME_SYSTEM":"UTC","MEAN_ANOMALY":"272.2846","CENTER_NAME":"EARTH","SEMIMAJOR_AXIS":"6925.384","SITE":"AFETR","COUNTRY_CODE":"US","REF_FRAME":"TEME","FILE":"3462783","ARG_OF_PERICENTER":"87.8303","MEAN_MOTION_DOT":"-0.00000665","EPOCH":"2022-05-24T14:22:33.358080","OBJECT_ID":"2020-019AM","EPHEMERIS_TYPE":"0","PERIAPSIS":"546.281","MEAN_MOTION_DDOT":"0.0000000000000","ECCENTRICITY":"0.00013970","REV_AT_EPOCH":"12042"},{"NORAD_CAT_ID":"45396","APOAPSIS":"548.289","CLASSIFICATION_TYPE":"U","PERIOD":"95.593","MEAN_ELEMENT_THEORY":"SGP4","RCS_SIZE":"LARGE","DECAY_DATE":null,"INCLINATION":"53.0534","OBJECT_NAME":"STARLINK-1303","ELEMENT_SET_NO":"999","TLE_LINE2":"2 45396  53.0534 243.4172 0001515  75.6761 284.4396 15.06391586120997","LAUNCH_DATE":"2020-03-18","OBJECT_TYPE":"PAYLOAD","MEAN_MOTION":"15.06391586","TLE_LINE1":"1 45396U 20019AN  22144.84595637  .00000247  00000-0  35485-4 0  9991","GP_ID":"204452739","RA_OF_ASC_NODE":"243.4172","OBJECT_ID":"2020-019AN","EPOCH":"2022-05-24T20:18:10.630368","EPHEMERIS_TYPE":"0","PERIAPSIS":"546.190","MEAN_MOTION_DDOT":"0.0000000000000","ECCENTRICITY":"0.00015150","REV_AT_EPOCH":"12099","REF_FRAME":"TEME","FILE":"3462783","MEAN_MOTION_DOT":"0.00000247","ARG_OF_PERICENTER":"75.6761","SITE":"AFETR","COUNTRY_CODE":"US","BSTAR":"0.00003548500000","TIME_SYSTEM":"UTC","MEAN_ANOMALY":"284.4396","CENTER_NAME":"EARTH","SEMIMAJOR_AXIS":"6925.374"},{"CLASSIFICATION_TYPE":"U","NORAD_CAT_ID":"45397","APOAPSIS":"548.260","OBJECT_NAME":"STARLINK-1307","ELEMENT_SET_NO":"999","PERIOD":"95.593","MEAN_ELEMENT_THEORY":"SGP4","RCS_SIZE":"LARGE","DECAY_DATE":null,"INCLINATION":"53.0546","TLE_LINE2":"2 45397  53.0546 244.5539 0001452  88.4490 271.6665 15.06386671121066","LAUNCH_DATE":"2020-03-18","OBJECT_TYPE":"PAYLOAD","TLE_LINE1":"1 45397U 20019AP  22144.59163248 -.00001268  00000-0 -66270-4 0  9995","MEAN_MOTION":"15.06386671","GP_ID":"204452983","RA_OF_ASC_NODE":"244.5539","MEAN_MOTION_DDOT":"0.0000000000000","ECCENTRICITY":"0.00014520","REV_AT_EPOCH":"12106","EPOCH":"2022-05-24T14:11:57.046272","OBJECT_ID":"2020-019AP","EPHEMERIS_TYPE":"0","PERIAPSIS":"546.249","FILE":"3462783","ARG_OF_PERICENTER":"88.4490","MEAN_MOTION_DOT":"-0.00001268","REF_FRAME":"TEME","SITE":"AFETR","COUNTRY_CODE":"US","MEAN_ANOMALY":"271.6665","CENTER_NAME":"EARTH","SEMIMAJOR_AXIS":"6925.389","BSTAR":"-0.00006627000000","TIME_SYSTEM":"UTC"},{"SITE":"AFETR","COUNTRY_CODE":"US","CENTER_NAME":"EARTH","MEAN_ANOMALY":"263.3409","SEMIMAJOR_AXIS":"6925.378","BSTAR":"0.00011699000000","TIME_SYSTEM":"UTC","ECCENTRICITY":"0.00012060","MEAN_MOTION_DDOT":"0.0000000000000","REV_AT_EPOCH":"12103","EPHEMERIS_TYPE":"0","OBJECT_ID":"2020-019AQ","EPOCH":"2022-05-24T20:23:29.741856","PERIAPSIS":"546.408","FILE":"3462783","MEAN_MOTION_DOT":"0.00001461","ARG_OF_PERICENTER":"96.7717","REF_FRAME":"TEME","TLE_LINE2":"2 45398  53.0529 243.3925 0001206  96.7717 263.3409 15.06390453121039","LAUNCH_DATE":"2020-03-18","OBJECT_TYPE":"PAYLOAD","MEAN_MOTION":"15.06390453","TLE_LINE1":"1 45398U 20019AQ  22144.84964979  .00001461  00000-0  11699-3 0  9991","RA_OF_ASC_NODE":"243.3925","GP_ID":"204452237","CLASSIFICATION_TYPE":"U","NORAD_CAT_ID":"45398","APOAPSIS":"548.078","OBJECT_NAME":"STARLINK-1312","ELEMENT_SET_NO":"999","RCS_SIZE":"LARGE","MEAN_ELEMENT_THEORY":"SGP4","PERIOD":"95.593","INCLINATION":"53.0529","DECAY_DATE":null},{"NORAD_CAT_ID":"45399","APOAPSIS":"548.494","CLASSIFICATION_TYPE":"U","RCS_SIZE":"LARGE","PERIOD":"95.592","MEAN_ELEMENT_THEORY":"SGP4","DECAY_DATE":null,"INCLINATION":"53.0551","OBJECT_NAME":"STARLINK-1255","ELEMENT_SET_NO":"999","TLE_LINE2":"2 45399  53.0551 234.1048 0001842  56.9029 303.2136 15.06398302121200","OBJECT_TYPE":"PAYLOAD","LAUNCH_DATE":"2020-03-18","MEAN_MOTION":"15.06398302","TLE_LINE1":"1 45399U 20019AR  22144.69206309 -.00000139  00000-0  95773-5 0  9990","RA_OF_ASC_NODE":"234.1048","GP_ID":"204452487","EPHEMERIS_TYPE":"0","OBJECT_ID":"2020-019AR","EPOCH":"2022-05-24T16:36:34.250976","PERIAPSIS":"545.943","ECCENTRICITY":"0.00018420","MEAN_MOTION_DDOT":"0.0000000000000","REV_AT_EPOCH":"12120","REF_FRAME":"TEME","FILE":"3462783","ARG_OF_PERICENTER":"56.9029","MEAN_MOTION_DOT":"-0.00000139","SITE":"AFETR","COUNTRY_CODE":"US","BSTAR":"0.00000957730000","TIME_SYSTEM":"UTC","CENTER_NAME":"EARTH","MEAN_ANOMALY":"303.2136","SEMIMAJOR_AXIS":"6925.354"},{"SITE":"AFETR","COUNTRY_CODE":"US","BSTAR":"0.00006852800000","TIME_SYSTEM":"UTC","CENTER_NAME":"EARTH","MEAN_ANOMALY":"295.8815","SEMIMAJOR_AXIS":"6925.360","EPHEMERIS_TYPE":"0","EPOCH":"2022-05-24T18:33:20.652480","OBJECT_ID":"2020-019AS","PERIAPSIS":"546.075","ECCENTRICITY":"0.00016600","MEAN_MOTION_DDOT":"0.0000000000000","REV_AT_EPOCH":"12114","REF_FRAME":"TEME","FILE":"3462783","MEAN_MOTION_DOT":"0.00000739","ARG_OF_PERICENTER":"64.2345","TLE_LINE2":"2 45400  53.0535 233.7472 0001660  64.2345 295.8815 15.06396393121143","OBJECT_TYPE":"PAYLOAD","LAUNCH_DATE":"2020-03-18","TLE_LINE1":"1 45400U 20019AS  22144.77315570  .00000739  00000-0  68528-4 0  9995","MEAN_MOTION":"15.06396393","RA_OF_ASC_NODE":"233.7472","GP_ID":"204453239","NORAD_CAT_ID":"45400","APOAPSIS":"548.374","CLASSIFICATION_TYPE":"U","RCS_SIZE":"LARGE","PERIOD":"95.592","MEAN_ELEMENT_THEORY":"SGP4","DECAY_DATE":null,"INCLINATION":"53.0535","OBJECT_NAME":"STARLINK-1213","ELEMENT_SET_NO":"999"}];
